TDRS 13                 
1 42915U 17047A   26201.25959582 -.00000102  00000+0  00000+0 0  9998
2 42915   3.4609   3.5465 0014977 111.5585 264.9843  1.00272335 32680
QZS-3 (MICHIBIKI-3)     
1 42917U 17048A   26201.28706927 -.00000350  00000+0  00000+0 0  9992
2 42917   0.0597 207.8395 0002755 278.5962  42.0020  1.00270151 32592
AMAZONAS 5              
1 42934U 17053A   26201.28103343 -.00000284  00000+0  00000+0 0  9996
2 42934   0.0344 319.7756 0001172 138.3740 240.0749  1.00270763 32377
ASIASAT 9               
1 42942U 17057A   26201.28611594 -.00000361  00000+0  00000+0 0  9997
2 42942   0.0156  47.3414 0002045  64.2903  51.5396  1.00275714 32194
INTELSAT 37E (IS-37E)   
1 42950U 17059A   26201.25829582 -.00000143  00000+0  00000+0 0  9991
2 42950   0.0191  64.7902 0002689  57.1844 251.0408  1.00269582 32395
BSAT-4A                 
1 42951U 17059B   26201.28368926 -.00000352  00000+0  00000+0 0  9997
2 42951   0.0362 344.6856 0003550  97.1675  68.1574  1.00272824 32134
QZS-4 (MICHIBIKI-4)     
1 42965U 17062A   26200.72085770 -.00000359  00000+0  00000+0 0  9994
2 42965  40.0889 343.0703 0747038 268.6623  84.6148  1.00289629 32136
SES-11 (ECHOSTAR 105)   
1 42967U 17063A   26201.27125557 -.00000091  00000+0  00000+0 0  9999
2 42967   0.0229 329.4113 0002853 137.5506 183.7752  1.00271724 32058
KOREASAT 5A             
1 42984U 17067A   26201.28429593 -.00000360  00000+0  00000+0 0  9999
2 42984   0.0109 340.6642 0000996 110.4310  62.4503  1.00273087 31864
ALCOMSAT 1              
1 43039U 17078A   26201.25699581 -.00000188  00000+0  00000+0 0  9994
2 43039   0.0405 262.4193 0002395 216.9452 246.3684  1.00272540 31621
SBIRS GEO-3 (USA 282)   
1 43162U 18009A   26201.23030236  .00000125  00000+0  00000+0 0  9990
2 43162   2.2087  13.6431 0001992  98.0232 109.8406  1.00272120 31175
AL YAH 3                
1 43174U 18012A   26201.25794914 -.00000158  00000+0  00000+0 0  9996
2 43174   1.6351  82.7103 0003639  33.2066 254.8632  1.00272192 31175
SES-14                  
1 43175U 18012B   26201.25248912 -.00000280  00000+0  00000+0 0  9995
2 43175   0.0121  31.6828 0000999  75.5879 234.1445  1.00271617  7355
GOES 17                 
1 43226U 18022A   26201.27347655 -.00000185  00000+0  00000+0 0  9993
2 43226   1.0201  85.1871 0000581  61.9000 159.9124  1.00272168 30756
HISPASAT 30W-6          
1 43228U 18023A   26201.25595581 -.00000218  00000+0  00000+0 0  9994
2 43228   0.0421  51.6936 0005244  43.5528 264.9390  1.00270325 30736
SUPERBIRD-B3            
1 43271U 18033A   26201.15120824 -.00000094  00000+0  00000+0 0  9998
2 43271   0.0384 242.1966 0001401 254.6817  17.4868  1.00271968 30396
HYLAS 4                 
1 43272U 18033B   26201.25526247 -.00000235  00000+0  00000+0 0  9996
2 43272   0.0318 238.9574 0000902 235.3919 242.0824  1.00271748 30390
IRNSS-1I                
1 43286U 18035A   26200.73725213  .00000063  00000+0  00000+0 0  9997
2 43286  28.8289  73.6878 0018365 178.9692   5.3277  1.00273777 30401
USA 283                 
1 43339U 18036A   26200.50433174 -.00000322  00000+0  00000+0 0  9993
2 43339   0.0121 113.1212 0000802  85.3615  54.4575  1.00271912 25614
COSMOS 2526             
1 43432U 18037A   26201.00126137 -.00000347  00000+0  00000+0 0  9999
2 43432   0.0287  96.0594 0000574 109.7113 220.5338  1.00275110 30289
APSTAR-6C               
1 43450U 18041A   26200.68559755 -.00000322  00000+0  00000+0 0  9996
2 43450   0.0842 293.1098 0000533 294.7366  90.4374  1.00269212 30139
BANGABANDHUSAT-1        
1 43463U 18044A   26201.28550927 -.00000364  00000+0  00000+0 0  9998
2 43463   0.0354  97.0684 0001946  22.6959  40.1817  1.00272318 30043
SES-12                  
1 43488U 18049A   26201.13812153 -.00000272  00000+0  00000+0 0  9994
2 43488   0.0102   8.2669 0000658 247.0643 187.3073  1.00272470 29742
FENGYUN 2H              
1 43491U 18050A   26201.06372120 -.00000130  00000+0  00000+0 0  9990
2 43491   3.1143  78.6921 0002120 130.8519 190.2915  1.00267007 29764
BEIDOU-2 IGSO-7         
1 43539U 18057A   26197.82826650 -.00000084  00000+0  00000+0 0  9998
2 43539  55.1987 162.7987 0104914 237.9691 299.1450  1.00242392 29427
TELSTAR 19V             
1 43562U 18059A   26201.24945578 -.00000282  00000+0  00000+0 0  9999
2 43562   0.0322 176.4766 0003029 312.1225 196.2243  1.00270925 29471
TELKOM 4 (MERAH PUTIH)  
1 43587U 18064A   26201.28316926  .00000000  00000+0  00000+0 0  9992
2 43587   0.0218  66.9198 0001367  53.4987  27.5890  1.00269414 29214
TELSTAR 18V             
1 43611U 18069A   26201.28923595 -.00000295  00000+0  00000+0 0  9998
2 43611   0.0374 237.2569 0001874 233.3499  69.5903  1.00272176 28972
AZERSPACE 2 (IS-38)     
1 43632U 18074A   26201.19956644  .00000134  00000+0  00000+0 0  9999
2 43632   0.0156  52.7211 0001517  57.8526 304.3517  1.00271872 28772
HORIZONS-3E             
1 43633U 18074B   26201.22409321 -.00000033  00000+0  00000+0 0  9998
2 43633   0.0423 237.8127 0000566  62.1314 247.7135  1.00271929 28677
AEHF-4 (USA 288)        
1 43651U 18079A   26201.24841576 -.00000277  00000+0  00000+0 0  9997
2 43651   1.4350   5.1998 0059847 355.2662 319.4743  1.00273939 28621
