OBJECT_NAME,OBJECT_ID,EPOCH,MEAN_MOTION,ECCENTRICITY,INCLINATION,RA_OF_ASC_NODE,ARG_OF_PERICENTER,MEAN_ANOMALY,EPHEMERIS_TYPE,CLASSIFICATION_TYPE,NORAD_CAT_ID,ELEMENT_SET_NO,REV_AT_EPOCH,BSTAR,MEAN_MOTION_DOT,MEAN_MOTION_DDOT
TDRS 13,2017-047A,2026-07-20T06:13:49.078848,1.00272335,.00149771,3.4609,3.5465,111.5585,264.9843,0,U,42915,999,3268,0,-.102E-5,0
QZS-3 (MICHIBIKI-3),2017-048A,2026-07-20T06:53:22.784928,1.00270151,.00027556,0.0597,207.8395,278.5962,42.0020,0,U,42917,999,3259,0,-.35E-5,0
AMAZONAS 5,2017-053A,2026-07-20T06:44:41.288352,1.00270763,.00011722,0.0344,319.7756,138.3740,240.0749,0,U,42934,999,3237,0,-.284E-5,0
ASIASAT 9,2017-057A,2026-07-20T06:52:00.417216,1.00275714,.00020459,0.0156,47.3414,64.2903,51.5396,0,U,42942,999,3219,0,-.361E-5,0
INTELSAT 37E (IS-37E),2017-059A,2026-07-20T06:11:56.758848,1.00269582,.00026897,0.0191,64.7902,57.1844,251.0408,0,U,42950,999,3239,0,-.143E-5,0
BSAT-4A,2017-059B,2026-07-20T06:48:30.752064,1.00272824,.00035505,0.0362,344.6856,97.1675,68.1574,0,U,42951,999,3213,0,-.352E-5,0
QZS-4 (MICHIBIKI-4),2017-062A,2026-07-19T17:18:02.105280,1.00289629,.07470384,40.0889,343.0703,268.6623,84.6148,0,U,42965,999,3213,0,-.359E-5,0
SES-11 (ECHOSTAR 105),2017-063A,2026-07-20T06:30:36.481248,1.00271724,.00028531,0.0229,329.4113,137.5506,183.7752,0,U,42967,999,3205,0,-.91E-6,0
KOREASAT 5A,2017-067A,2026-07-20T06:49:23.168352,1.00273087,.00009965,0.0109,340.6642,110.4310,62.4503,0,U,42984,999,3186,0,-.36E-5,0
ALCOMSAT 1,2017-078A,2026-07-20T06:10:04.437984,1.00272540,.00023952,0.0405,262.4193,216.9452,246.3684,0,U,43039,999,3162,0,-.188E-5,0
SBIRS GEO-3 (USA 282),2018-009A,2026-07-20T05:31:38.123904,1.00272120,.00019922,2.2087,13.6431,98.0232,109.8406,0,U,43162,999,3117,0,.125E-5,0
AL YAH 3,2018-012A,2026-07-20T06:11:26.805696,1.00272192,.00036394,1.6351,82.7103,33.2066,254.8632,0,U,43174,999,3117,0,-.158E-5,0
SES-14,2018-012B,2026-07-20T06:03:35.059968,1.00271617,.0000999,0.0121,31.6828,75.5879,234.1445,0,U,43175,999,735,0,-.28E-5,0
GOES 17,2018-022A,2026-07-20T06:33:48.373920,1.00272168,.00005811,1.0201,85.1871,61.9000,159.9124,0,U,43226,999,3075,0,-.185E-5,0
HISPASAT 30W-6,2018-023A,2026-07-20T06:08:34.581984,1.00270325,.00052445,0.0421,51.6936,43.5528,264.9390,0,U,43228,999,3073,0,-.218E-5,0
SUPERBIRD-B3,2018-033A,2026-07-20T03:37:44.391936,1.00271968,.00014015,0.0384,242.1966,254.6817,17.4868,0,U,43271,999,3039,0,-.94E-6,0
HYLAS 4,2018-033B,2026-07-20T06:07:34.677408,1.00271748,.00009025,0.0318,238.9574,235.3919,242.0824,0,U,43272,999,3039,0,-.235E-5,0
IRNSS-1I,2018-035A,2026-07-19T17:41:38.584032,1.00273777,.00183655,28.8289,73.6878,178.9692,5.3277,0,U,43286,999,3040,0,.63E-6,0
USA 283,2018-036A,2026-07-19T12:06:14.262336,1.00271912,.0000802,0.0121,113.1212,85.3615,54.4575,0,U,43339,999,2561,0,-.322E-5,0
COSMOS 2526,2018-037A,2026-07-20T00:01:48.982368,1.00275110,.00005743,0.0287,96.0594,109.7113,220.5338,0,U,43432,999,3028,0,-.347E-5,0
APSTAR-6C,2018-041A,2026-07-19T16:27:15.628320,1.00269212,.0000533,0.0842,293.1098,294.7366,90.4374,0,U,43450,999,3013,0,-.322E-5,0
BANGABANDHUSAT-1,2018-044A,2026-07-20T06:51:08.000928,1.00272318,.00019466,0.0354,97.0684,22.6959,40.1817,0,U,43463,999,3004,0,-.364E-5,0
SES-12,2018-049A,2026-07-20T03:18:53.700192,1.00272470,.00006583,0.0102,8.2669,247.0643,187.3073,0,U,43488,999,2974,0,-.272E-5,0
FENGYUN 2H,2018-050A,2026-07-20T01:31:45.511680,1.00267007,.00021203,3.1143,78.6921,130.8519,190.2915,0,U,43491,999,2976,0,-.13E-5,0
BEIDOU-2 IGSO-7,2018-057A,2026-07-16T19:52:42.225600,1.00242392,.01049148,55.1987,162.7987,237.9691,299.1450,0,U,43539,999,2942,0,-.84E-6,0
TELSTAR 19V,2018-059A,2026-07-20T05:59:12.979392,1.00270925,.00030298,0.0322,176.4766,312.1225,196.2243,0,U,43562,999,2947,0,-.282E-5,0
TELKOM 4 (MERAH PUTIH),2018-064A,2026-07-20T06:47:45.824064,1.00269414,.0001367,0.0218,66.9198,53.4987,27.5890,0,U,43587,999,2921,0,0,0
TELSTAR 18V,2018-069A,2026-07-20T06:56:29.986080,1.00272176,.00018747,0.0374,237.2569,233.3499,69.5903,0,U,43611,999,2897,0,-.295E-5,0
AZERSPACE 2 (IS-38),2018-074A,2026-07-20T04:47:22.540416,1.00271872,.00015171,0.0156,52.7211,57.8526,304.3517,0,U,43632,999,2877,0,.134E-5,0
HORIZONS-3E,2018-074B,2026-07-20T05:22:41.653344,1.00271929,.00005666,0.0423,237.8127,62.1314,247.7135,0,U,43633,999,2867,0,-.33E-6,0
AEHF-4 (USA 288),2018-079A,2026-07-20T05:57:43.121664,1.00273939,.00598472,1.4350,5.1998,355.2662,319.4743,0,U,43651,999,2862,0,-.277E-5,0
